      2.10          N: GNSS NAV DATA                        RINEX VERSION / TYPE
fic2rin                                 07/17/2023 00:17:13 PGM / RUN BY / DATE
                                                            END OF HEADER
2  23  7 16  1 59 44.0 -.575734302402D-03  .386535248253D-11  .000000000000D+00
     .350000000000D+02  .117500000000D+02  .430303638159D-08 -.202826603331D+01
     .107847154140D-05  .159466875484D-01 -.571832060814D-06  .515355376625D+04
     .718400000000D+04  .160187482834D-06  .129488718872D+01  .251457095146D-06
     .967298484322D+00  .390937500000D+03 -.136969350763D+01 -.816319717279D-08
     .125719522437D-09  .100000000000D+01  .227100000000D+04  .000000000000D+00
     .240000000000D+01  .000000000000D+00 -.176951289177D-07  .350000000000D+02
     .000000000000D+00  .400000000000D+01
32 23  7 16  4  0  0.0 -.521977897733D-03 -.761701812735D-11  .000000000000D+00
     .560000000000D+02 -.236875000000D+02  .448304387963D-08 -.829358898493D+00
    -.101327896118D-05  .694617745467D-02  .953674316406D-05  .515377055359D+04
     .144000000000D+05  .242143869400D-07 -.282156078419D+01  .113621354103D-06
     .960282675925D+00  .197343750000D+03 -.220248041232D+01 -.783318342639D-08
     .632883504995D-09  .100000000000D+01  .227100000000D+04  .000000000000D+00
     .240000000000D+01  .000000000000D+00  .465661287308D-09  .560000000000D+02
     .720000000000D+04  .400000000000D+01
31 23  7 16  4  0  0.0 -.220131129026D-03 -.682121026330D-12  .000000000000D+00
     .134000000000D+03  .262500000000D+01  .528629162384D-08  .109582452878D+01
     .385567545891D-06  .103295928566D-01  .525079667568D-05  .515358182907D+04
     .144000000000D+05  .353902578354D-07 -.174285308451D+01  .143423676491D-06
     .953915171379D+00  .275656250000D+03  .552467535279D+00 -.836320550394D-08
    -.127148153374D-09  .100000000000D+01  .227100000000D+04  .000000000000D+00
     .240000000000D+01  .000000000000D+00 -.135041773319D-07  .134000000000D+03
     .720000000000D+04  .400000000000D+01
16 23  7 16  4  0  0.0 -.480249989778D-03  .443378667114D-11  .000000000000D+00
     .760000000000D+02  .315625000000D+02  .439839749662D-08 -.518885874799D+00
     .167079269886D-05  .132994565647D-01  .937655568123D-05  .515363000298D+04
     .144000000000D+05  .111758708954D-07 -.629721794509D+00  .245869159698D-06
     .964707002479D+00  .200375000000D+03  .790721935874D+00 -.795140263641D-08
    -.667170647478D-09  .100000000000D+01  .227100000000D+04  .000000000000D+00
     .240000000000D+01  .000000000000D+00 -.102445483208D-07  .760000000000D+02
     .720000000000D+04  .400000000000D+01
13 23  7 16  4  0  0.0  .547681469470D-03  .500222085975D-11  .000000000000D+00
     .390000000000D+02 -.155625000000D+02  .433018036939D-08 -.182723146659D+01
    -.894069671631D-06  .719216919970D-02  .866129994392D-05  .515366700172D+04
     .144000000000D+05  .126659870148D-06 -.267393908425D+01 -.204890966415D-07
     .970194052705D+00  .213343750000D+03  .913061412421D+00 -.758817322073D-08
     .729673250963D-09  .100000000000D+01  .227100000000D+04  .000000000000D+00
     .240000000000D+01  .000000000000D+00 -.111758708954D-07  .390000000000D+02
     .720000000000D+04  .400000000000D+01
9  23  7 16  4  0  0.0 -.111123546958D-03  .932232069317D-11  .000000000000D+00
     .830000000000D+02 -.196562500000D+02  .458090509880D-08 -.967309323082D+00
    -.115297734737D-05  .249703566078D-02  .990554690361D-05  .515357930183D+04
     .144000000000D+05 -.558793544769D-07 -.283493161990D+01  .130385160446D-07
     .956696977401D+00  .192687500000D+03  .193471407962D+01 -.784068373881D-08
     .675742433099D-09  .100000000000D+01  .227100000000D+04  .000000000000D+00
     .240000000000D+01  .000000000000D+00  .931322574615D-09  .830000000000D+02
     .720000000000D+04  .400000000000D+01
21 23  7 16  4  0  0.0  .152099411935D-03 -.454747350886D-12  .000000000000D+00
     .840000000000D+02  .628125000000D+01  .458019078333D-08 -.148159739850D+01
     .575557351112D-06  .246851635166D-01  .881031155586D-06  .515359648895D+04
     .144000000000D+05 -.394880771637D-06  .128950863874D+01 -.124797224998D-06
     .961598339596D+00  .370562500000D+03 -.735610812846D+00 -.854178437103D-08
     .277868717205D-09  .100000000000D+01  .227100000000D+04  .000000000000D+00
     .240000000000D+01  .000000000000D+00 -.102445483208D-07  .840000000000D+02
     .720000000000D+04  .400000000000D+01
17 23  7 16  4  0  0.0  .721032265574D-03  .682121026330D-12  .000000000000D+00
     .440000000000D+02  .140000000000D+03  .397873715894D-08 -.152348351095D+01
     .731460750103D-05  .135966683738D-01  .586174428463D-05  .515355420876D+04
     .144000000000D+05 -.875443220139D-07  .390830196538D+00  .318512320518D-06
     .973863030767D+00  .278687500000D+03 -.140837704664D+01 -.792997317236D-08
    -.139291516336D-10  .100000000000D+01  .227100000000D+04  .000000000000D+00
     .240000000000D+01  .000000000000D+00 -.111758708954D-07  .440000000000D+02
     .720000000000D+04  .400000000000D+01
26 23  7 16  4  0  0.0  .236326828599D-03 -.113686837722D-11  .000000000000D+00
     .104000000000D+03  .543750000000D+01  .526379068658D-08  .377943146369D+00
     .426545739174D-06  .797160167713D-02  .857748091221D-05  .515371808243D+04
     .144000000000D+05  .223517417908D-07 -.787378360532D+00  .987201929092D-07
     .933406635470D+00  .194968750000D+03  .463671812078D+00 -.829677416538D-08
    -.716815572532D-09  .100000000000D+01  .227100000000D+04  .000000000000D+00
     .340000000000D+01  .000000000000D+00  .698491930962D-08  .104000000000D+03
     .720000000000D+04  .400000000000D+01
14 23  7 16  4  0  0.0  .123678706586D-03  .120508047985D-10  .000000000000D+00
     .102000000000D+03  .307187500000D+02  .481805783431D-08  .122000277778D+01
     .175088644028D-05  .339790992439D-02  .907853245735D-05  .515367984581D+04
     .144000000000D+05  .102445483208D-06 -.687351971769D+00 -.149011611938D-07
     .948334899624D+00  .196500000000D+03 -.297522147140D+01 -.799497587998D-08
    -.702172105430D-09  .100000000000D+01  .227100000000D+04  .000000000000D+00
     .240000000000D+01  .000000000000D+00 -.791624188423D-08  .102000000000D+03
     .720000000000D+04  .400000000000D+01
25 23  7 16  4  0  0.0  .456377863884D-03  .238742359215D-11  .000000000000D+00
     .920000000000D+02  .149687500000D+02  .474769776067D-08  .108174751618D+01
     .856816768646D-06  .110589778051D-01  .962987542152D-05  .515370883560D+04
     .144000000000D+05 -.199303030968D-06 -.730796820507D+00  .912696123123D-07
     .952681852440D+00  .191968750000D+03  .105254149195D+01 -.807997942072D-08
    -.732173355102D-09  .100000000000D+01  .227100000000D+04  .000000000000D+00
     .240000000000D+01  .000000000000D+00  .558793544769D-08  .920000000000D+02
     .720000000000D+04  .400000000000D+01
18 23  7 16  4  0  0.0 -.347147695720D-03 -.142108547152D-10  .000000000000D+00
     .164000000000D+03  .684375000000D+01  .428017828661D-08  .281490029080D+01
     .333413481712D-06  .345411919989D-02  .838190317154D-07  .515366613770D+04
     .144000000000D+05 -.745058059692D-08  .139484886823D+01  .335276126862D-07
     .973770471940D+00  .384781250000D+03  .312949821829D+01 -.820534178542D-08
    -.500020827875D-11  .100000000000D+01  .227100000000D+04  .000000000000D+00
     .240000000000D+01  .000000000000D+00 -.838190317154D-08  .420000000000D+03
     .720000000000D+04  .400000000000D+01
28 23  7 16  4  0  0.0  .823717564344D-04 -.147792889038D-11  .000000000000D+00
     .231000000000D+03  .278125000000D+01  .510985570314D-08  .508350875060D+00
     .277534127235D-06  .620621838607D-03  .522285699844D-05  .515370051384D+04
     .144000000000D+05 -.111758708954D-07 -.179983613557D+01  .111758708954D-06
     .961010555204D+00  .279656250000D+03  .166112533590D+01 -.815355391396D-08
     .122147945095D-09  .100000000000D+01  .227100000000D+04  .000000000000D+00
     .240000000000D+01  .000000000000D+00 -.977888703346D-08  .231000000000D+03
     .720000000000D+04  .400000000000D+01
23 23  7 16  4  0  0.0  .437614507973D-04  .420641299570D-11  .000000000000D+00
     .214000000000D+03 -.129187500000D+03  .395159317115D-08  .178080487481D+01
    -.683963298798D-05  .335865654051D-02  .601448118687D-05  .515367100906D+04
     .144000000000D+05 -.391155481339D-07  .239502310532D+01  .223517417908D-07
     .974747819714D+00  .269531250000D+03 -.310693045110D+01 -.778246702813D-08
    -.614311302817D-10  .100000000000D+01  .227100000000D+04  .000000000000D+00
     .240000000000D+01  .000000000000D+00 -.838190317154D-08  .726000000000D+03
     .720000000000D+04  .400000000000D+01
